{
    "CCSDS_OMM_VERS": "3.0",
    "COMMENT": "GENERATED VIA SPACE-TRACK.ORG API",
    "CREATION_DATE": "2025-11-24T07:36:20",
    "ORIGINATOR": "18 SPCS",
    "OBJECT_NAME": "GALILEO 31 (10D)",
    "OBJECT_ID": "2024-167B",
    "CENTER_NAME": "EARTH",
    "REF_FRAME": "TEME",
    "TIME_SYSTEM": "UTC",
    "MEAN_ELEMENT_THEORY": "SGP4",
    "EPOCH": "2025-11-24T01:50:18.378240",
    "MEAN_MOTION": "1.70473318",
    "ECCENTRICITY": "0.00006790",
    "INCLINATION": "55.2468",
    "RA_OF_ASC_NODE": "226.9492",
    "ARG_OF_PERICENTER": "141.9614",
    "MEAN_ANOMALY": "36.8245",
    "EPHEMERIS_TYPE": "0",
    "CLASSIFICATION_TYPE": "U",
    "NORAD_CAT_ID": "61183",
    "ELEMENT_SET_NO": "999",
    "REV_AT_EPOCH": "735",
    "BSTAR": "0.00000000000000",
    "MEAN_MOTION_DOT": "0.00000030",
    "MEAN_MOTION_DDOT": "0.0000000000000",
    "SEMIMAJOR_AXIS": "29600.399",
    "PERIOD": "844.707",
    "APOAPSIS": "23224.274",
    "PERIAPSIS": "23220.254",
    "OBJECT_TYPE": "PAYLOAD",
    "RCS_SIZE": "LARGE",
    "COUNTRY_CODE": "ESA",
    "LAUNCH_DATE": "2024-09-17",
    "SITE": "AFETR",
    "DECAY_DATE": null,
    "FILE": "4897318",
    "GP_ID": "303375757",
    "TLE_LINE0": "0 GALILEO 31 (10D)",
    "TLE_LINE1": "1 61183U 24167B   25328.07660160  .00000030  00000-0  00000+0 0  9997",
    "TLE_LINE2": "2 61183  55.2468 226.9492 0000679 141.9614  36.8245  1.70473318  7350"
}